{
  "type": "FeatureCollection",
  "features": [
    {
      "type": "Feature",
      "properties": {
        "norad_id": 54741,
        "name": "GALAXY 35 (G-35)",
        "group": "intelsat",
        "lat": -0.002955427614033066,
        "lon": -157.22275950401692,
        "alt_km": 35780.574975856194,
        "timestamp": "2025-12-07T14:37:04.877442+00:00",
        "meta_object_name": "GALAXY 35 (G-35)",
        "meta_object_id": "2022-170A",
        "meta_epoch": "2025-12-06T21:47:02.534208",
        "meta_mean_motion": 1.00271204,
        "meta_eccentricity": 0.00027083,
        "meta_inclination": 0.0144,
        "meta_ra_of_asc_node": 68.8459,
        "meta_arg_of_pericenter": 194.1811,
        "meta_mean_anomaly": 46.5851,
        "meta_ephemeris_type": 0,
        "meta_classification_type": "U",
        "meta_norad_cat_id": 54741,
        "meta_element_set_no": 999,
        "meta_rev_at_epoch": 1096,
        "meta_bstar": 0,
        "meta_mean_motion_dot": -1.57e-06,
        "meta_mean_motion_ddot": 0,
        "tle_line1": "1 54741U 22170A   25340.90766822 -.00000157  00000+0  00000+0 0  9999",
        "tle_line2": "2 54741   0.0144  68.8459 0002708 194.1811  46.5851  1.00271204 10966"
      },
      "geometry": {
        "type": "Point",
        "coordinates": [
          -157.22275950401692,
          -0.002955427614033066
        ]
      }
    },
    {
      "type": "Feature",
      "properties": {
        "norad_id": 54742,
        "name": "GALAXY 36 (G-36)",
        "group": "intelsat",
        "lat": -0.025701035916939122,
        "lon": -153.12802235161422,
        "alt_km": 35785.732846074716,
        "timestamp": "2025-12-07T14:37:04.877454+00:00",
        "meta_object_name": "GALAXY 36 (G-36)",
        "meta_object_id": "2022-170B",
        "meta_epoch": "2025-12-06T21:48:09.926208",
        "meta_mean_motion": 1.00269423,
        "meta_eccentricity": 6.185e-05,
        "meta_inclination": 0.0117,
        "meta_ra_of_asc_node": 341.9552,
        "meta_arg_of_pericenter": 291.2611,
        "meta_mean_anomaly": 40.7562,
        "meta_ephemeris_type": 0,
        "meta_classification_type": "U",
        "meta_norad_cat_id": 54742,
        "meta_element_set_no": 999,
        "meta_rev_at_epoch": 1084,
        "meta_bstar": 0,
        "meta_mean_motion_dot": 0,
        "meta_mean_motion_ddot": 0,
        "tle_line1": "1 54742U 22170B   25340.90844822  .00000000  00000+0  00000+0 0  9993",
        "tle_line2": "2 54742   0.0117 341.9552 0000618 291.2611  40.7562  1.00269423 10843"
      },
      "geometry": {
        "type": "Point",
        "coordinates": [
          -153.12802235161422,
          -0.025701035916939122
        ]
      }
    },
    {
      "type": "Feature",
      "properties": {
        "norad_id": 57493,
        "name": "GALAXY 37 (G-37)",
        "group": "intelsat",
        "lat": -0.005310030677617428,
        "lon": 168.86693768166558,
        "alt_km": 35786.60383380041,
        "timestamp": "2025-12-07T14:37:04.877465+00:00",
        "meta_object_name": "GALAXY 37 (G-37)",
        "meta_object_id": "2023-112A",
        "meta_epoch": "2025-12-06T21:37:10.979328",
        "meta_mean_motion": 1.00270596,
        "meta_eccentricity": 0.00024005,
        "meta_inclination": 0.0123,
        "meta_ra_of_asc_node": 341.544,
        "meta_arg_of_pericenter": 278.6945,
        "meta_mean_anomaly": 12.9936,
        "meta_ephemeris_type": 0,
        "meta_classification_type": "U",
        "meta_norad_cat_id": 57493,
        "meta_element_set_no": 999,
        "meta_rev_at_epoch": 861,
        "meta_bstar": 0,
        "meta_mean_motion_dot": 5.4e-07,
        "meta_mean_motion_ddot": 0,
        "tle_line1": "1 57493U 23112A   25340.90082152  .00000054  00000+0  00000+0 0  9995",
        "tle_line2": "2 57493   0.0123 341.5440 0002400 278.6945  12.9936  1.00270596  8619"
      },
      "geometry": {
        "type": "Point",
        "coordinates": [
          168.86693768166558,
          -0.005310030677617428
        ]
      }
    }
  ]
}